KUIPER-00232            
1 67148U 25301R   25360.82066362  .00034540  00000+0  95400-3 0  9992
2 67148  51.8750  57.1247 0001500  52.9877 307.1247 15.36734624  2539
KUIPER-00241            
1 67149U 25301S   25360.69381633  .00028959  00000+0  81377-3 0  9994
2 67149  51.8741  57.7727 0002971 101.8633 258.2686 15.36284193  2844
KUIPER-00245            
1 67150U 25301T   25360.63296133  .00018556  00000+0  53650-3 0  9995
2 67150  51.8728  58.1185 0005014 122.7078 237.4392 15.35659116  2506
KUIPER-00246            
1 67151U 25301U   25360.63077067  .00024439  00000+0  69659-3 0  9992
2 67151  51.8739  58.1025 0003975 116.7856 243.3537 15.35931631  2527
KUIPER-00247            
1 67152U 25301V   25360.64422374  .00028169  00000+0  84978-3 0  9994
2 67152  51.8629  58.1938 0011231 154.7768 205.3768 15.34015344  2502
KUIPER-00248            
1 67153U 25301W   25360.76994523  .00029699  00000+0  87642-3 0  9998
2 67153  51.8678  57.5380 0008806 143.5222 216.6365 15.34705298  2698
KUIPER-00249            
1 67154U 25301X   25360.63832332  .00029236  00000+0  85989-3 0  9993
2 67154  51.8653  58.1564 0008100 139.9410 220.2175 15.34823508  2503
KUIPER-00250            
1 67155U 25301Y   25360.63506091  .00029358  00000+0  84888-3 0  9996
2 67155  51.8715  58.1338 0006240 130.2941 229.8591 15.35370073  2533
