<?xml version="1.0" encoding="UTF-8"?>
<ndm xmlns:xsi="http://www.w3.org/2001/XMLSchema-instance" xsi:noNamespaceSchemaLocation="https://sanaregistry.org/r/ndmxml_unqualified/ndmxml-2.0.0-master-2.0.xsd">
<omm id="CCSDS_OMM_VERS" version="2.0">
<header><CREATION_DATE/><ORIGINATOR/></header><body><segment><metadata><OBJECT_NAME>KUIPER-00232</OBJECT_NAME><OBJECT_ID>2025-301R</OBJECT_ID><CENTER_NAME>EARTH</CENTER_NAME><REF_FRAME>TEME</REF_FRAME><TIME_SYSTEM>UTC</TIME_SYSTEM><MEAN_ELEMENT_THEORY>SGP4</MEAN_ELEMENT_THEORY></metadata><data><meanElements><EPOCH>2025-12-26T19:41:45.336768</EPOCH><MEAN_MOTION>15.36734624</MEAN_MOTION><ECCENTRICITY>.00015</ECCENTRICITY><INCLINATION>51.8750</INCLINATION><RA_OF_ASC_NODE>57.1247</RA_OF_ASC_NODE><ARG_OF_PERICENTER>52.9877</ARG_OF_PERICENTER><MEAN_ANOMALY>307.1247</MEAN_ANOMALY></meanElements><tleParameters><EPHEMERIS_TYPE>0</EPHEMERIS_TYPE><CLASSIFICATION_TYPE>U</CLASSIFICATION_TYPE><NORAD_CAT_ID>67148</NORAD_CAT_ID><ELEMENT_SET_NO>999</ELEMENT_SET_NO><REV_AT_EPOCH>253</REV_AT_EPOCH><BSTAR>.954E-3</BSTAR><MEAN_MOTION_DOT>.3454E-3</MEAN_MOTION_DOT><MEAN_MOTION_DDOT>0</MEAN_MOTION_DDOT></tleParameters></data></segment></body></omm>
<omm id="CCSDS_OMM_VERS" version="2.0">
<header><CREATION_DATE/><ORIGINATOR/></header><body><segment><metadata><OBJECT_NAME>KUIPER-00241</OBJECT_NAME><OBJECT_ID>2025-301S</OBJECT_ID><CENTER_NAME>EARTH</CENTER_NAME><REF_FRAME>TEME</REF_FRAME><TIME_SYSTEM>UTC</TIME_SYSTEM><MEAN_ELEMENT_THEORY>SGP4</MEAN_ELEMENT_THEORY></metadata><data><meanElements><EPOCH>2025-12-26T16:39:05.730912</EPOCH><MEAN_MOTION>15.36284193</MEAN_MOTION><ECCENTRICITY>.0002971</ECCENTRICITY><INCLINATION>51.8741</INCLINATION><RA_OF_ASC_NODE>57.7727</RA_OF_ASC_NODE><ARG_OF_PERICENTER>101.8633</ARG_OF_PERICENTER><MEAN_ANOMALY>258.2686</MEAN_ANOMALY></meanElements><tleParameters><EPHEMERIS_TYPE>0</EPHEMERIS_TYPE><CLASSIFICATION_TYPE>U</CLASSIFICATION_TYPE><NORAD_CAT_ID>67149</NORAD_CAT_ID><ELEMENT_SET_NO>999</ELEMENT_SET_NO><REV_AT_EPOCH>284</REV_AT_EPOCH><BSTAR>.81377E-3</BSTAR><MEAN_MOTION_DOT>.28959E-3</MEAN_MOTION_DOT><MEAN_MOTION_DDOT>0</MEAN_MOTION_DDOT></tleParameters></data></segment></body></omm>
<omm id="CCSDS_OMM_VERS" version="2.0">
<header><CREATION_DATE/><ORIGINATOR/></header><body><segment><metadata><OBJECT_NAME>KUIPER-00245</OBJECT_NAME><OBJECT_ID>2025-301T</OBJECT_ID><CENTER_NAME>EARTH</CENTER_NAME><REF_FRAME>TEME</REF_FRAME><TIME_SYSTEM>UTC</TIME_SYSTEM><MEAN_ELEMENT_THEORY>SGP4</MEAN_ELEMENT_THEORY></metadata><data><meanElements><EPOCH>2025-12-26T15:11:27.858912</EPOCH><MEAN_MOTION>15.35659116</MEAN_MOTION><ECCENTRICITY>.0005014</ECCENTRICITY><INCLINATION>51.8728</INCLINATION><RA_OF_ASC_NODE>58.1185</RA_OF_ASC_NODE><ARG_OF_PERICENTER>122.7078</ARG_OF_PERICENTER><MEAN_ANOMALY>237.4392</MEAN_ANOMALY></meanElements><tleParameters><EPHEMERIS_TYPE>0</EPHEMERIS_TYPE><CLASSIFICATION_TYPE>U</CLASSIFICATION_TYPE><NORAD_CAT_ID>67150</NORAD_CAT_ID><ELEMENT_SET_NO>999</ELEMENT_SET_NO><REV_AT_EPOCH>250</REV_AT_EPOCH><BSTAR>.5365E-3</BSTAR><MEAN_MOTION_DOT>.18556E-3</MEAN_MOTION_DOT><MEAN_MOTION_DDOT>0</MEAN_MOTION_DDOT></tleParameters></data></segment></body></omm>
<omm id="CCSDS_OMM_VERS" version="2.0">
<header><CREATION_DATE/><ORIGINATOR/></header><body><segment><metadata><OBJECT_NAME>KUIPER-00246</OBJECT_NAME><OBJECT_ID>2025-301U</OBJECT_ID><CENTER_NAME>EARTH</CENTER_NAME><REF_FRAME>TEME</REF_FRAME><TIME_SYSTEM>UTC</TIME_SYSTEM><MEAN_ELEMENT_THEORY>SGP4</MEAN_ELEMENT_THEORY></metadata><data><meanElements><EPOCH>2025-12-26T15:08:18.585888</EPOCH><MEAN_MOTION>15.35931631</MEAN_MOTION><ECCENTRICITY>.0003975</ECCENTRICITY><INCLINATION>51.8739</INCLINATION><RA_OF_ASC_NODE>58.1025</RA_OF_ASC_NODE><ARG_OF_PERICENTER>116.7856</ARG_OF_PERICENTER><MEAN_ANOMALY>243.3537</MEAN_ANOMALY></meanElements><tleParameters><EPHEMERIS_TYPE>0</EPHEMERIS_TYPE><CLASSIFICATION_TYPE>U</CLASSIFICATION_TYPE><NORAD_CAT_ID>67151</NORAD_CAT_ID><ELEMENT_SET_NO>999</ELEMENT_SET_NO><REV_AT_EPOCH>252</REV_AT_EPOCH><BSTAR>.69659E-3</BSTAR><MEAN_MOTION_DOT>.24439E-3</MEAN_MOTION_DOT><MEAN_MOTION_DDOT>0</MEAN_MOTION_DDOT></tleParameters></data></segment></body></omm>
<omm id="CCSDS_OMM_VERS" version="2.0">
<header><CREATION_DATE/><ORIGINATOR/></header><body><segment><metadata><OBJECT_NAME>KUIPER-00247</OBJECT_NAME><OBJECT_ID>2025-301V</OBJECT_ID><CENTER_NAME>EARTH</CENTER_NAME><REF_FRAME>TEME</REF_FRAME><TIME_SYSTEM>UTC</TIME_SYSTEM><MEAN_ELEMENT_THEORY>SGP4</MEAN_ELEMENT_THEORY></metadata><data><meanElements><EPOCH>2025-12-26T15:27:40.931136</EPOCH><MEAN_MOTION>15.34015344</MEAN_MOTION><ECCENTRICITY>.0011231</ECCENTRICITY><INCLINATION>51.8629</INCLINATION><RA_OF_ASC_NODE>58.1938</RA_OF_ASC_NODE><ARG_OF_PERICENTER>154.7768</ARG_OF_PERICENTER><MEAN_ANOMALY>205.3768</MEAN_ANOMALY></meanElements><tleParameters><EPHEMERIS_TYPE>0</EPHEMERIS_TYPE><CLASSIFICATION_TYPE>U</CLASSIFICATION_TYPE><NORAD_CAT_ID>67152</NORAD_CAT_ID><ELEMENT_SET_NO>999</ELEMENT_SET_NO><REV_AT_EPOCH>250</REV_AT_EPOCH><BSTAR>.84978E-3</BSTAR><MEAN_MOTION_DOT>.28169E-3</MEAN_MOTION_DOT><MEAN_MOTION_DDOT>0</MEAN_MOTION_DDOT></tleParameters></data></segment></body></omm>
<omm id="CCSDS_OMM_VERS" version="2.0">
<header><CREATION_DATE/><ORIGINATOR/></header><body><segment><metadata><OBJECT_NAME>KUIPER-00248</OBJECT_NAME><OBJECT_ID>2025-301W</OBJECT_ID><CENTER_NAME>EARTH</CENTER_NAME><REF_FRAME>TEME</REF_FRAME><TIME_SYSTEM>UTC</TIME_SYSTEM><MEAN_ELEMENT_THEORY>SGP4</MEAN_ELEMENT_THEORY></metadata><data><meanElements><EPOCH>2025-12-26T18:28:43.267872</EPOCH><MEAN_MOTION>15.34705298</MEAN_MOTION><ECCENTRICITY>.0008806</ECCENTRICITY><INCLINATION>51.8678</INCLINATION><RA_OF_ASC_NODE>57.5380</RA_OF_ASC_NODE><ARG_OF_PERICENTER>143.5222</ARG_OF_PERICENTER><MEAN_ANOMALY>216.6365</MEAN_ANOMALY></meanElements><tleParameters><EPHEMERIS_TYPE>0</EPHEMERIS_TYPE><CLASSIFICATION_TYPE>U</CLASSIFICATION_TYPE><NORAD_CAT_ID>67153</NORAD_CAT_ID><ELEMENT_SET_NO>999</ELEMENT_SET_NO><REV_AT_EPOCH>269</REV_AT_EPOCH><BSTAR>.87642E-3</BSTAR><MEAN_MOTION_DOT>.29699E-3</MEAN_MOTION_DOT><MEAN_MOTION_DDOT>0</MEAN_MOTION_DDOT></tleParameters></data></segment></body></omm>
<omm id="CCSDS_OMM_VERS" version="2.0">
<header><CREATION_DATE/><ORIGINATOR/></header><body><segment><metadata><OBJECT_NAME>KUIPER-00249</OBJECT_NAME><OBJECT_ID>2025-301X</OBJECT_ID><CENTER_NAME>EARTH</CENTER_NAME><REF_FRAME>TEME</REF_FRAME><TIME_SYSTEM>UTC</TIME_SYSTEM><MEAN_ELEMENT_THEORY>SGP4</MEAN_ELEMENT_THEORY></metadata><data><meanElements><EPOCH>2025-12-26T15:19:11.134848</EPOCH><MEAN_MOTION>15.34823508</MEAN_MOTION><ECCENTRICITY>.00081</ECCENTRICITY><INCLINATION>51.8653</INCLINATION><RA_OF_ASC_NODE>58.1564</RA_OF_ASC_NODE><ARG_OF_PERICENTER>139.9410</ARG_OF_PERICENTER><MEAN_ANOMALY>220.2175</MEAN_ANOMALY></meanElements><tleParameters><EPHEMERIS_TYPE>0</EPHEMERIS_TYPE><CLASSIFICATION_TYPE>U</CLASSIFICATION_TYPE><NORAD_CAT_ID>67154</NORAD_CAT_ID><ELEMENT_SET_NO>999</ELEMENT_SET_NO><REV_AT_EPOCH>250</REV_AT_EPOCH><BSTAR>.85989E-3</BSTAR><MEAN_MOTION_DOT>.29236E-3</MEAN_MOTION_DOT><MEAN_MOTION_DDOT>0</MEAN_MOTION_DDOT></tleParameters></data></segment></body></omm>
<omm id="CCSDS_OMM_VERS" version="2.0">
<header><CREATION_DATE/><ORIGINATOR/></header><body><segment><metadata><OBJECT_NAME>KUIPER-00250</OBJECT_NAME><OBJECT_ID>2025-301Y</OBJECT_ID><CENTER_NAME>EARTH</CENTER_NAME><REF_FRAME>TEME</REF_FRAME><TIME_SYSTEM>UTC</TIME_SYSTEM><MEAN_ELEMENT_THEORY>SGP4</MEAN_ELEMENT_THEORY></metadata><data><meanElements><EPOCH>2025-12-26T15:14:29.262624</EPOCH><MEAN_MOTION>15.35370073</MEAN_MOTION><ECCENTRICITY>.000624</ECCENTRICITY><INCLINATION>51.8715</INCLINATION><RA_OF_ASC_NODE>58.1338</RA_OF_ASC_NODE><ARG_OF_PERICENTER>130.2941</ARG_OF_PERICENTER><MEAN_ANOMALY>229.8591</MEAN_ANOMALY></meanElements><tleParameters><EPHEMERIS_TYPE>0</EPHEMERIS_TYPE><CLASSIFICATION_TYPE>U</CLASSIFICATION_TYPE><NORAD_CAT_ID>67155</NORAD_CAT_ID><ELEMENT_SET_NO>999</ELEMENT_SET_NO><REV_AT_EPOCH>253</REV_AT_EPOCH><BSTAR>.84888E-3</BSTAR><MEAN_MOTION_DOT>.29358E-3</MEAN_MOTION_DOT><MEAN_MOTION_DDOT>0</MEAN_MOTION_DDOT></tleParameters></data></segment></body></omm>

</ndm>
